{"spkid": "50458964", "covariance": {"epoch": "2458905.5", "labels": ["e", "q", "tp", "node", "peri", "i"], "data": [["1.053910997581627E-15", "-2.124084346559923E-15", "-1.662996570011306E-13", "3.572039547509853E-14", "-1.373308389137743E-13", "-1.044702672480396E-13"], ["-2.124084346559923E-15", "4.28725135066385E-15", "3.262857340073251E-13", "-7.180660039942522E-14", "2.72890071694283E-13", "2.179626537746723E-13"], ["-1.662996570011306E-13", "3.262857340073251E-13", "2.506769616168986E-10", "-7.658363363526782E-13", "1.341373042060098E-10", "8.522984598517841E-11"], ["3.572039547509853E-14", "-7.180660039942522E-14", "-7.658363363526782E-13", "1.505605264435852E-10", "-1.071807454138952E-10", "-2.429393928684079E-10"], ["-1.373308389137743E-13", "2.72890071694283E-13", "1.341373042060098E-10", "-1.071807454138952E-10", "1.680043098095297E-10", "2.089073853323132E-10"], ["-1.044702672480396E-13", "2.179626537746723E-13", "8.522984598517841E-11", "-2.429393928684079E-10", "2.089073853323132E-10", "6.495779929548028E-10"]], "elements": [{"label": "e", "sigma": 3.24639954038567e-08, "name": "e", "units": null, "title": "eccentricity", "value": ".5840382987105484"}, {"name": "q", "sigma": 6.54771055458612e-08, "units": "au", "value": ".8249580357451133", "title": "perihelion distance", "label": "q"}, {"label": "tp", "title": "time of perihelion passage", "value": "2458930.723426471562", "units": "TDB", "name": "tp", "sigma": 1.58327812344167e-05}, {"units": "deg", "title": "longitude of the ascending node", "value": "69.76051796411308", "sigma": 1.22703107720866e-05, "name": "om", "label": "node"}, {"label": "peri", "units": "deg", "value": "50.9121683235592", "title": "argument of perihelion", "name": "w", "sigma": 1.29616476502615e-05}, {"label": "i", "name": "i", "sigma": 2.54868199851375e-05, "title": "inclination", "value": "47.00135163330791", "units": "deg"}]}, "elements": [{"label": "e", "sigma": "3.174E-8", "name": "e", "value": ".5842326255160193", "title": "eccentricity", "units": null}, {"label": "a", "title": "semi-major axis", "value": "1.984363955701322", "units": "au", "sigma": "1.0555E-8", "name": "a"}, {"sigma": "6.5535E-8", "name": "q", "value": ".8250337918825846", "title": "perihelion distance", "units": "au", "label": "q"}, {"title": "inclination; angle with respect to x-y ecliptic plane", "value": "46.96885710035674", "units": "deg", "sigma": "2.5495E-5", "name": "i", "label": "i"}, {"label": "node", "name": "om", "sigma": "1.2201E-5", "units": "deg", "value": "69.69275042740458", "title": "longitude of the ascending node"}, {"label": "peri", "name": "w", "sigma": "1.2836E-5", "title": "argument of perihelion", "value": "50.92684074521947", "units": "deg"}, {"label": "M", "units": "deg", "title": "mean anomaly", "value": "80.59864507229732", "name": "ma", "sigma": "8.4907E-6"}, {"label": "tp", "units": "TDB", "title": "time of perihelion passage", "value": "2460971.910824121747", "sigma": "2.2501E-5", "name": "tp"}, {"name": "per", "sigma": "8.1465E-6", "value": "1021.011001392824", "title": "sidereal orbital period", "units": "d", "label": "period"}, {"label": "n", "name": "n", "sigma": "2.8133E-9", "units": "deg/d", "title": "mean motion", "value": ".3525916953969171"}, {"value": "3.143694119520058", "title": "aphelion distance", "units": "au", "name": "ad", "sigma": "1.6722E-8", "label": "Q"}], "epoch": "2461200.5"}